STARLINK-3090_new
1 19132C 21082C   21326.14131638 -.00659745  00000-0 -11267-1 0  3263
2 19132  69.9999 293.3852 0003458 272.3828  40.0472 15.51803340    14
STARLINK-3090_old
1 29132C 21082C   21325.19590449 -.00649450  00000-0 -10579-1 0  3252
2 29132  69.9997 295.9743 0003463 274.6067 155.4642 15.53115719    13
